[{"OBJECT_NAME":"R2","OBJECT_ID":"2020-081J","EPOCH":"2026-03-09T01:19:00.333408","MEAN_MOTION":15.23806181,"ECCENTRICITY":0.0005079,"INCLINATION":36.8981,"RA_OF_ASC_NODE":317.5127,"ARG_OF_PERICENTER":163.7384,"MEAN_ANOMALY":196.3528,"EPHEMERIS_TYPE":0,"CLASSIFICATION_TYPE":"U","NORAD_CAT_ID":46913,"ELEMENT_SET_NO":999,"REV_AT_EPOCH":29669,"BSTAR":0.000513162,"MEAN_MOTION_DOT":0.00012575,"MEAN_MOTION_DDOT":0},{"OBJECT_NAME":"STARLINK-30776","OBJECT_ID":"2023-162U","EPOCH":"2026-03-09T22:00:01.999584","MEAN_MOTION":15.2481564,"ECCENTRICITY":0.00014304,"INCLINATION":43.0008,"RA_OF_ASC_NODE":131.3181,"ARG_OF_PERICENTER":256.5401,"MEAN_ANOMALY":336.6047,"EPHEMERIS_TYPE":0,"CLASSIFICATION_TYPE":"U","NORAD_CAT_ID":58136,"ELEMENT_SET_NO":999,"REV_AT_EPOCH":568,"BSTAR":0.043191873,"MEAN_MOTION_DOT":0.01190361,"MEAN_MOTION_DDOT":0}]
